ONEWEB-0558             
1 56059U 23043P   26125.29713250  .00000156  00000+0  34612-3 0  9992
2 56059  87.9233 252.5157 0001591  88.2415 271.8901 13.21824111152572
ONEWEB-0559             
1 56060U 23043Q   26125.28535743  .00000117  00000+0  25203-3 0  9995
2 56060  87.9233 252.5116 0001761  93.9947 266.1388 13.21825107152584
ONEWEB-0566             
1 56061U 23043R   26125.27863023  .00000073  00000+0  14616-3 0  9997
2 56061  87.9232 252.5119 0001718  91.2843 268.8488 13.21824727152560
ONEWEB-0568             
1 56062U 23043S   26125.30064369  .00000170  00000+0  41026-3 0  9991
2 56062  87.9093 237.2876 0001923 110.9236 249.2102 13.16595787153336
ONEWEB-0574             
1 56063U 23043T   26125.27190950  .00000054  00000+0  98404-4 0  9998
2 56063  87.9241 252.5123 0002086 103.0133 257.1234 13.21827316152602
ONEWEB-0575             
1 56064U 23043U   26124.76234257  .00000107  00000+0  24689-3 0  9993
2 56064  87.9093 237.3910 0002282 110.4431 249.6945 13.16595549153255
ONEWEB-0576             
1 56065U 23043V   26125.27532366  .00000104  00000+0  23745-3 0  9992
2 56065  87.9095 237.2951 0002110 106.7875 253.3487 13.16594987153317
ONEWEB-0577             
1 56066U 23043W   26125.28165141  .00000035  00000+0  58875-4 0  9993
2 56066  87.9096 237.2919 0002685 109.0212 251.1210 13.16594346153343
ONEWEB-0578             
1 56067U 23043X   26124.80427048  .00000026  00000+0  30345-4 0  9990
2 56067  87.9236 252.6054 0001864 107.7665 252.3672 13.21826195152504
ONEWEB-0579             
1 56068U 23043Y   26124.79585628 -.00000040  00000+0 -12924-3 0  9998
2 56068  87.9240 252.6030 0001947  91.9175 268.2182 13.21827757152514
ONEWEB-0581             
1 56069U 23043Z   26125.28798690  .00000087  00000+0  19359-3 0  9997
2 56069  87.9094 237.3022 0002515 105.6758 254.4650 13.16594413153315
ONEWEB-0609             
1 56070U 23043AA  26125.13293195  .00000070  00000+0  15161-3 0  9992
2 56070  87.8961 267.7971 0001717  98.8468 261.2857 13.15550337150771
ONEWEB-0613             
1 56071U 23043AB  26124.90239448 -.00000051  00000+0 -16845-3 0  9999
2 56071  87.8960 267.8551 0001780  89.8853 270.2481 13.15548248150742
ONEWEB-0630             
1 56072U 23043AC  26124.89763914 -.00000080  00000+0 -24647-3 0  9999
2 56072  87.8962 267.8266 0001816  90.6178 269.5161 13.15547983150738
ONEWEB-0632             
1 56073U 23043AD  26124.43654086 -.00000044  00000+0 -14980-3 0  9998
2 56073  87.8962 267.9366 0002004  99.1782 260.9575 13.15548920150675
ONEWEB-0633             
1 56074U 23043AE  26125.19076339 -.00000106  00000+0 -31473-3 0  9997
2 56074  87.8973 267.7582 0001623  86.5285 273.6031 13.15547981150753
