[{"OBJECT_NAME":"ONEWEB-0558","OBJECT_ID":"2023-043P","EPOCH":"2026-05-05T07:07:52.248000","MEAN_MOTION":13.21824111,"ECCENTRICITY":0.0001591,"INCLINATION":87.9233,"RA_OF_ASC_NODE":252.5157,"ARG_OF_PERICENTER":88.2415,"MEAN_ANOMALY":271.8901,"EPHEMERIS_TYPE":0,"CLASSIFICATION_TYPE":"U","NORAD_CAT_ID":56059,"ELEMENT_SET_NO":999,"REV_AT_EPOCH":15257,"BSTAR":0.00034612,"MEAN_MOTION_DOT":1.56e-06,"MEAN_MOTION_DDOT":0.0},{"OBJECT_NAME":"ONEWEB-0559","OBJECT_ID":"2023-043Q","EPOCH":"2026-05-05T06:50:54.881952","MEAN_MOTION":13.21825107,"ECCENTRICITY":0.0001761,"INCLINATION":87.9233,"RA_OF_ASC_NODE":252.5116,"ARG_OF_PERICENTER":93.9947,"MEAN_ANOMALY":266.1388,"EPHEMERIS_TYPE":0,"CLASSIFICATION_TYPE":"U","NORAD_CAT_ID":56060,"ELEMENT_SET_NO":999,"REV_AT_EPOCH":15258,"BSTAR":0.00025203,"MEAN_MOTION_DOT":1.17e-06,"MEAN_MOTION_DDOT":0.0},{"OBJECT_NAME":"ONEWEB-0566","OBJECT_ID":"2023-043R","EPOCH":"2026-05-05T06:41:13.651872","MEAN_MOTION":13.21824727,"ECCENTRICITY":0.0001718,"INCLINATION":87.9232,"RA_OF_ASC_NODE":252.5119,"ARG_OF_PERICENTER":91.2843,"MEAN_ANOMALY":268.8488,"EPHEMERIS_TYPE":0,"CLASSIFICATION_TYPE":"U","NORAD_CAT_ID":56061,"ELEMENT_SET_NO":999,"REV_AT_EPOCH":15256,"BSTAR":0.00014616000000000002,"MEAN_MOTION_DOT":7.3e-07,"MEAN_MOTION_DDOT":0.0},{"OBJECT_NAME":"ONEWEB-0568","OBJECT_ID":"2023-043S","EPOCH":"2026-05-05T07:12:55.614816","MEAN_MOTION":13.16595787,"ECCENTRICITY":0.0001923,"INCLINATION":87.9093,"RA_OF_ASC_NODE":237.2876,"ARG_OF_PERICENTER":110.9236,"MEAN_ANOMALY":249.2102,"EPHEMERIS_TYPE":0,"CLASSIFICATION_TYPE":"U","NORAD_CAT_ID":56062,"ELEMENT_SET_NO":999,"REV_AT_EPOCH":15333,"BSTAR":0.00041026,"MEAN_MOTION_DOT":1.7e-06,"MEAN_MOTION_DDOT":0.0},{"OBJECT_NAME":"ONEWEB-0574","OBJECT_ID":"2023-043T","EPOCH":"2026-05-05T06:31:32.980800","MEAN_MOTION":13.21827316,"ECCENTRICITY":0.0002086,"INCLINATION":87.9241,"RA_OF_ASC_NODE":252.5123,"ARG_OF_PERICENTER":103.0133,"MEAN_ANOMALY":257.1234,"EPHEMERIS_TYPE":0,"CLASSIFICATION_TYPE":"U","NORAD_CAT_ID":56063,"ELEMENT_SET_NO":999,"REV_AT_EPOCH":15260,"BSTAR":9.8404e-05,"MEAN_MOTION_DOT":5.4e-07,"MEAN_MOTION_DDOT":0.0},{"OBJECT_NAME":"ONEWEB-0575","OBJECT_ID":"2023-043U","EPOCH":"2026-05-04T18:17:46.398048","MEAN_MOTION":13.16595549,"ECCENTRICITY":0.0002282,"INCLINATION":87.9093,"RA_OF_ASC_NODE":237.391,"ARG_OF_PERICENTER":110.4431,"MEAN_ANOMALY":249.6945,"EPHEMERIS_TYPE":0,"CLASSIFICATION_TYPE":"U","NORAD_CAT_ID":56064,"ELEMENT_SET_NO":999,"REV_AT_EPOCH":15325,"BSTAR":0.00024689,"MEAN_MOTION_DOT":1.07e-06,"MEAN_MOTION_DDOT":0.0},{"OBJECT_NAME":"ONEWEB-0576","OBJECT_ID":"2023-043V","EPOCH":"2026-05-05T06:36:27.964224","MEAN_MOTION":13.16594987,"ECCENTRICITY":0.000211,"INCLINATION":87.9095,"RA_OF_ASC_NODE":237.2951,"ARG_OF_PERICENTER":106.7875,"MEAN_ANOMALY":253.3487,"EPHEMERIS_TYPE":0,"CLASSIFICATION_TYPE":"U","NORAD_CAT_ID":56065,"ELEMENT_SET_NO":999,"REV_AT_EPOCH":15331,"BSTAR":0.00023745,"MEAN_MOTION_DOT":1.04e-06,"MEAN_MOTION_DDOT":0.0},{"OBJECT_NAME":"ONEWEB-0577","OBJECT_ID":"2023-043W","EPOCH":"2026-05-05T06:45:34.681824","MEAN_MOTION":13.16594346,"ECCENTRICITY":0.0002685,"INCLINATION":87.9096,"RA_OF_ASC_NODE":237.2919,"ARG_OF_PERICENTER":109.0212,"MEAN_ANOMALY":251.121,"EPHEMERIS_TYPE":0,"CLASSIFICATION_TYPE":"U","NORAD_CAT_ID":56066,"ELEMENT_SET_NO":999,"REV_AT_EPOCH":15334,"BSTAR":5.8875e-05,"MEAN_MOTION_DOT":3.5e-07,"MEAN_MOTION_DDOT":0.0},{"OBJECT_NAME":"ONEWEB-0578","OBJECT_ID":"2023-043X","EPOCH":"2026-05-04T19:18:08.969472","MEAN_MOTION":13.21826195,"ECCENTRICITY":0.0001864,"INCLINATION":87.9236,"RA_OF_ASC_NODE":252.6054,"ARG_OF_PERICENTER":107.7665,"MEAN_ANOMALY":252.3672,"EPHEMERIS_TYPE":0,"CLASSIFICATION_TYPE":"U","NORAD_CAT_ID":56067,"ELEMENT_SET_NO":999,"REV_AT_EPOCH":15250,"BSTAR":3.0345e-05,"MEAN_MOTION_DOT":2.6e-07,"MEAN_MOTION_DDOT":0.0},{"OBJECT_NAME":"ONEWEB-0579","OBJECT_ID":"2023-043Y","EPOCH":"2026-05-04T19:06:01.982592","MEAN_MOTION":13.21827757,"ECCENTRICITY":0.0001947,"INCLINATION":87.924,"RA_OF_ASC_NODE":252.603,"ARG_OF_PERICENTER":91.9175,"MEAN_ANOMALY":268.2182,"EPHEMERIS_TYPE":0,"CLASSIFICATION_TYPE":"U","NORAD_CAT_ID":56068,"ELEMENT_SET_NO":999,"REV_AT_EPOCH":15251,"BSTAR":-0.00012924,"MEAN_MOTION_DOT":-4e-07,"MEAN_MOTION_DDOT":0.0},{"OBJECT_NAME":"ONEWEB-0581","OBJECT_ID":"2023-043Z","EPOCH":"2026-05-05T06:54:42.068160","MEAN_MOTION":13.16594413,"ECCENTRICITY":0.0002515,"INCLINATION":87.9094,"RA_OF_ASC_NODE":237.3022,"ARG_OF_PERICENTER":105.6758,"MEAN_ANOMALY":254.465,"EPHEMERIS_TYPE":0,"CLASSIFICATION_TYPE":"U","NORAD_CAT_ID":56069,"ELEMENT_SET_NO":999,"REV_AT_EPOCH":15331,"BSTAR":0.00019359000000000002,"MEAN_MOTION_DOT":8.7e-07,"MEAN_MOTION_DDOT":0.0},{"OBJECT_NAME":"ONEWEB-0609","OBJECT_ID":"2023-043AA","EPOCH":"2026-05-05T03:11:25.320480","MEAN_MOTION":13.15550337,"ECCENTRICITY":0.0001717,"INCLINATION":87.8961,"RA_OF_ASC_NODE":267.7971,"ARG_OF_PERICENTER":98.8468,"MEAN_ANOMALY":261.2857,"EPHEMERIS_TYPE":0,"CLASSIFICATION_TYPE":"U","NORAD_CAT_ID":56070,"ELEMENT_SET_NO":999,"REV_AT_EPOCH":15077,"BSTAR":0.00015161,"MEAN_MOTION_DOT":7e-07,"MEAN_MOTION_DDOT":0.0},{"OBJECT_NAME":"ONEWEB-0613","OBJECT_ID":"2023-043AB","EPOCH":"2026-05-04T21:39:26.883072","MEAN_MOTION":13.15548248,"ECCENTRICITY":0.000178,"INCLINATION":87.896,"RA_OF_ASC_NODE":267.8551,"ARG_OF_PERICENTER":89.8853,"MEAN_ANOMALY":270.2481,"EPHEMERIS_TYPE":0,"CLASSIFICATION_TYPE":"U","NORAD_CAT_ID":56071,"ELEMENT_SET_NO":999,"REV_AT_EPOCH":15074,"BSTAR":-0.00016845,"MEAN_MOTION_DOT":-5.1e-07,"MEAN_MOTION_DDOT":0.0},{"OBJECT_NAME":"ONEWEB-0630","OBJECT_ID":"2023-043AC","EPOCH":"2026-05-04T21:32:36.021696","MEAN_MOTION":13.15547983,"ECCENTRICITY":0.0001816,"INCLINATION":87.8962,"RA_OF_ASC_NODE":267.8266,"ARG_OF_PERICENTER":90.6178,"MEAN_ANOMALY":269.5161,"EPHEMERIS_TYPE":0,"CLASSIFICATION_TYPE":"U","NORAD_CAT_ID":56072,"ELEMENT_SET_NO":999,"REV_AT_EPOCH":15073,"BSTAR":-0.00024647,"MEAN_MOTION_DOT":-8e-07,"MEAN_MOTION_DDOT":0.0},{"OBJECT_NAME":"ONEWEB-0632","OBJECT_ID":"2023-043AD","EPOCH":"2026-05-04T10:28:37.130304","MEAN_MOTION":13.1554892,"ECCENTRICITY":0.0002004,"INCLINATION":87.8962,"RA_OF_ASC_NODE":267.9366,"ARG_OF_PERICENTER":99.1782,"MEAN_ANOMALY":260.9575,"EPHEMERIS_TYPE":0,"CLASSIFICATION_TYPE":"U","NORAD_CAT_ID":56073,"ELEMENT_SET_NO":999,"REV_AT_EPOCH":15067,"BSTAR":-0.00014979999999999998,"MEAN_MOTION_DOT":-4.4e-07,"MEAN_MOTION_DDOT":0.0},{"OBJECT_NAME":"ONEWEB-0633","OBJECT_ID":"2023-043AE","EPOCH":"2026-05-05T04:34:41.956896","MEAN_MOTION":13.15547981,"ECCENTRICITY":0.0001623,"INCLINATION":87.8973,"RA_OF_ASC_NODE":267.7582,"ARG_OF_PERICENTER":86.5285,"MEAN_ANOMALY":273.6031,"EPHEMERIS_TYPE":0,"CLASSIFICATION_TYPE":"U","NORAD_CAT_ID":56074,"ELEMENT_SET_NO":999,"REV_AT_EPOCH":15075,"BSTAR":-0.00031473,"MEAN_MOTION_DOT":-1.06e-06,"MEAN_MOTION_DDOT":0.0}]